GLOBALSTAR M069         
1 31573U 07020C   26198.68908564 -.00000097  00000+0 -43519-4 0  9993
2 31573  52.0008 165.7930 0001580 215.7897 316.3493 12.23472274882539
GLOBALSTAR M072         
1 31574U 07020D   26198.48858686 -.00000079  00000+0  68194-4 0  9996
2 31574  51.9950  19.5748 0001649  39.9688 335.3043 11.91658841878590
GLOBALSTAR M066         
1 32265U 07048C   26198.69154020 -.00000041  00000+0  45555-3 0  9992
2 32265  51.9610 330.3444 0005574 106.6912 266.8170 12.30389761863983
GLOBALSTAR M079         
1 37188U 10054A   26198.45380433 -.00000107  00000+0 -18357-4 0  9990
2 37188  52.0056  16.5339 0001128  81.5515 294.3469 12.62266433726378
GLOBALSTAR M074         
1 37189U 10054B   26198.48059227 -.00000107  00000+0 -20538-4 0  9992
2 37189  52.0034  15.7132 0000866  96.0712 281.5562 12.62262048726982
GLOBALSTAR M076         
1 37190U 10054C   26198.74344351 -.00000093  00000+0  61729-4 0  9998
2 37190  52.0049  15.1188 0001100  96.0938 276.4568 12.62262492726732
GLOBALSTAR M077         
1 37191U 10054D   26198.19777797 -.00000103  00000+0 -46617-3 0  9993
2 37191  51.9959 103.1240 0002226 228.9838 299.4155 11.67547328724646
GLOBALSTAR M075         
1 37192U 10054E   26198.68396501 -.00000095  00000+0  46725-4 0  9998
2 37192  51.9955  57.3368 0000775  68.5457 334.1651 12.62267876725794
GLOBALSTAR M073         
1 37193U 10054F   26198.67793435 -.00000094  00000+0  53364-4 0  9991
2 37193  52.0081 331.4797 0001034 100.0309 273.5761 12.62266950727787
GLOBALSTAR M083         
1 37739U 11033A   26198.72596890 -.00000075  00000+0  16038-3 0  9992
2 37739  51.9861 279.5217 0000727 108.6011  64.6508 12.62264290696809
GLOBALSTAR M088         
1 37740U 11033B   26198.46140712 -.00000116  00000+0 -68147-4 0  9999
2 37740  52.0189 186.8263 0000081  56.3556 112.8314 12.62269499692312
GLOBALSTAR M091         
1 37741U 11033C   26198.63355102 -.00000107  00000+0 -20603-4 0  9995
2 37741  51.9982 149.2226 0000485  28.4884 143.8975 12.62264232693123
GLOBALSTAR M085         
1 37742U 11033D   26198.74458633 -.00000085  00000+0  10369-3 0  9992
2 37742  52.0126 100.2037 0000833  45.2545 331.9460 12.62264372693653
GLOBALSTAR M081         
1 37743U 11033E   26198.77483316 -.00000092  00000+0  65163-4 0  9993
2 37743  51.9957 102.5128 0000722  57.8801 336.6961 12.62265290693806
GLOBALSTAR M089         
1 37744U 11033F   26198.57361696 -.00000094  00000+0  53482-4 0  9991
2 37744  51.9938  57.2784 0000707  90.8844 290.0126 12.62267596694625
GLOBALSTAR M084         
1 38040U 11080A   26198.69765578 -.00000079  00000+0  13765-3 0  9995
2 38040  52.0016 284.3999 0000774 133.2621  31.3380 12.62263600672619
GLOBALSTAR M080         
1 38041U 11080B   26198.75055233 -.00000075  00000+0  16144-3 0  9993
2 38041  52.0066 285.9680 0000307  77.7952  97.0442 12.62257590672743
GLOBALSTAR M082         
1 38042U 11080C   26198.52240174 -.00000089  00000+0  80848-4 0  9997
2 38042  52.0060 242.1663 0000194  76.2364  71.3480 12.62264325673426
GLOBALSTAR M092         
1 38043U 11080D   26198.62490196 -.00000087  00000+0  91347-4 0  9994
2 38043  52.0105 332.2514 0000757 107.2756 265.7007 12.62267839671894
GLOBALSTAR M090         
1 38044U 11080E   26198.12809628 -.00000079  00000+0  13632-3 0  9995
2 38044  52.0103 237.3317 0000413  89.1139 304.6303 12.62269629673490
GLOBALSTAR M086         
1 38045U 11080F   26198.38213594 -.00000097  00000+0  37973-4 0  9990
2 38045  51.9874 236.4377 0001478 115.0182 257.5463 12.62287861673478
GLOBALSTAR M097         
1 39072U 13005A   26198.56955889 -.00000118  00000+0 -76836-4 0  9996
2 39072  52.0028 150.8481 0000495  42.4807 317.6098 12.62271307620744
GLOBALSTAR M093         
1 39073U 13005B   26198.54280278 -.00000104  00000+0  11947-6 0  9996
2 39073  52.0094 144.2883 0000713  48.0633 312.0294 12.62266345620690
GLOBALSTAR M094         
1 39074U 13005C   26198.62184441 -.00000092  00000+0  67827-4 0  9993
2 39074  51.9969  58.1349 0001019  66.2767 293.8207 12.62264193622310
GLOBALSTAR M096         
1 39075U 13005D   26198.16026490 -.00000087  00000+0  91513-4 0  9995
2 39075  52.0072 108.3649 0000785  46.0016 314.0916 12.62265725621179
GLOBALSTAR M078         
1 39076U 13005E   26198.68768924 -.00000124  00000+0 -11144-3 0  9992
2 39076  51.9845 190.7278 0000898 345.3751  14.7090 12.62260128619867
GLOBALSTAR M095         
1 39077U 13005F   26198.71436378 -.00000124  00000+0 -11308-3 0  9994
2 39077  52.0054 188.2934 0000525  17.4129 342.6755 12.62264109619725
GLOBALSTAR M087         
1 52888U 22064A   26198.41072933 -.00000088  00000+0  88417-4 0  9998
2 52888  52.0016 330.4391 0000906  87.9852 272.1119 12.62269420194959
